ONEWEB-0273             
1 48991U 21060AA  23352.17512945  .00000083  00000+0  18438-3 0  9996
2 48991  87.9080  50.2940 0001876 110.9109 249.2223 13.16596134120880
ONEWEB-0274             
1 48992U 21060AB  23351.66847648 -.00000296  00000+0 -80886-3 0  9995
2 48992  87.9077  50.3989 0001199 111.4820 248.6438 13.16593968119550
ONEWEB-0275             
1 48993U 21060AC  23352.18992867  .00000018  00000+0  14535-4 0  9997
2 48993  87.9073  50.2912 0001793 107.2839 252.8488 13.16593230120843
ONEWEB-0276             
1 48994U 21060AD  23351.69170339  .00000075  00000+0  16275-3 0  9990
2 48994  87.9079  50.3833 0001923 115.4743 244.6587 13.16598004119507
ONEWEB-0277             
1 48995U 21060AE  23351.70436585  .00000113  00000+0  26293-3 0  9995
2 48995  87.9078  50.4197 0001730 124.0293 236.1002 13.16596067119496
ONEWEB-0278             
1 48996U 21060AF  23352.22579712  .00000066  00000+0  13876-3 0  9994
2 48996  87.9078  50.2734 0002119  98.8961 261.2410 13.16593068121004
ONEWEB-0279             
1 48997U 21060AG  23352.23424332  .00000091  00000+0  20346-3 0  9991
2 48997  87.9079  50.2702 0001775 103.9085 256.2243 13.16592418120929
ONEWEB-0280             
1 48998U 21060AH  23351.71703493  .00000030  00000+0  44890-4 0  9996
2 48998  87.9081  50.3730 0001523 127.5174 232.6095 13.16593405119497
